[{"OBJECT_NAME":"STARLINK-6179","OBJECT_ID":"2023-083AL","EPOCH":"2026-03-09T22:00:01.999584","MEAN_MOTION":15.06605558,"ECCENTRICITY":0.00020501,"INCLINATION":43.0008,"RA_OF_ASC_NODE":67.6718,"ARG_OF_PERICENTER":263.1606,"MEAN_ANOMALY":74.6473,"EPHEMERIS_TYPE":0,"CLASSIFICATION_TYPE":"U","NORAD_CAT_ID":56910,"ELEMENT_SET_NO":999,"REV_AT_EPOCH":572,"BSTAR":0.0046762264,"MEAN_MOTION_DOT":0.0007095,"MEAN_MOTION_DDOT":0},{"OBJECT_NAME":"FENGYUN 1C DEB","OBJECT_ID":"1999-025BZZ","EPOCH":"2026-03-09T13:05:44.544480","MEAN_MOTION":14.97363263,"ECCENTRICITY":0.00745573,"INCLINATION":99.0712,"RA_OF_ASC_NODE":279.0573,"ARG_OF_PERICENTER":15.484,"MEAN_ANOMALY":344.8634,"EPHEMERIS_TYPE":0,"CLASSIFICATION_TYPE":"U","NORAD_CAT_ID":31619,"ELEMENT_SET_NO":999,"REV_AT_EPOCH":64782,"BSTAR":0.0036839182,"MEAN_MOTION_DOT":0.00045478,"MEAN_MOTION_DDOT":0}]
